[{"OBJECT_NAME":"OBJECT C","OBJECT_ID":"2024-018C","EPOCH":"2026-03-09T23:27:02.912256","MEAN_MOTION":14.40497628,"ECCENTRICITY":0.04251116,"INCLINATION":58.684,"RA_OF_ASC_NODE":211.7369,"ARG_OF_PERICENTER":351.7809,"MEAN_ANOMALY":7.6397,"EPHEMERIS_TYPE":0,"CLASSIFICATION_TYPE":"U","NORAD_CAT_ID":58851,"ELEMENT_SET_NO":999,"REV_AT_EPOCH":11099,"BSTAR":0.00023456096,"MEAN_MOTION_DOT":1.991e-5,"MEAN_MOTION_DDOT":0},{"OBJECT_NAME":"CZ-4 DEB","OBJECT_ID":"2006-046L","EPOCH":"2026-03-09T05:26:57.251328","MEAN_MOTION":15.20206122,"ECCENTRICITY":0.00567956,"INCLINATION":97.8211,"RA_OF_ASC_NODE":163.0679,"ARG_OF_PERICENTER":229.3561,"MEAN_ANOMALY":130.2727,"EPHEMERIS_TYPE":0,"CLASSIFICATION_TYPE":"U","NORAD_CAT_ID":35378,"ELEMENT_SET_NO":999,"REV_AT_EPOCH":2541,"BSTAR":0.0021311714,"MEAN_MOTION_DOT":0.00048409,"MEAN_MOTION_DDOT":0}]
